{"type":"FeatureCollection","features":[{"type":"Feature","id":1,"geometry":{"type":"Polygon","coordinates":[[[-99.823341191999987,32.520451081000033],[-99.819468651999955,32.501985680000075],[-99.788299433999953,32.507652811000071],[-99.786929877999967,32.519884368000078],[-99.823341191999987,32.520451081000033]]]},"properties":{"OBJECTID":1,"Shape_Length":0.099271042654639846,"Shape_Area":0.00052182075426689676,"Site":"Stargate 1 Abiliene","Phase":"TBD","Field":0}},{"type":"Feature","id":2,"geometry":{"type":"Polygon","coordinates":[[[-99.792927590999966,32.494240602000048],[-99.79325817299997,32.480497810000031],[-99.767331050999985,32.486495523000031],[-99.760813850999966,32.494901767000044],[-99.792927590999966,32.494240602000048]]]},"properties":{"OBJECTID":2,"Shape_Length":0.083115792847608574,"Shape_Area":0.00030998764925043072,"Site":"Stargate 1 Abiliene","Phase":"2","Field":0}},{"type":"Feature","id":3,"geometry":{"type":"Polygon","coordinates":[[[-99.786882650999985,32.515208985000072],[-99.788016077999941,32.507652811000071],[-99.799303112999951,32.505197054000064],[-99.80482856499998,32.499293793000049],[-99.802608938999981,32.491643167000063],[-99.793494303999978,32.492115428000034],[-99.79325817299997,32.494760089000067],[-99.767283824999936,32.495185124000045],[-99.767708859999971,32.507133324000051],[-99.786882650999985,32.515208985000072]]]},"properties":{"OBJECTID":3,"Shape_Length":0.10576433412684558,"Shape_Area":0.00052877593437362859,"Site":"Stargate 1 Abiliene","Phase":"1","Field":0}},{"type":"Feature","id":4,"geometry":{"type":"Polygon","coordinates":[[[-90.044569458999945,35.003069869000058],[-90.045083278999982,34.995030100000065],[-90.025074528999937,34.995090549000054],[-90.03377924199998,35.00297919500008],[-90.044569458999945,35.003069869000058]]]},"properties":{"OBJECTID":4,"Shape_Length":0.050603068395085549,"Shape_Area":0.00012258278955180207,"Site":"XAI Colossus","Phase":"2","Field":0}},{"type":"Feature","id":5,"geometry":{"type":"Polygon","coordinates":[[[-90.03805401599999,34.99494072300007],[-90.037906960999976,34.991685229000041],[-90.029872614999988,34.99186134200005],[-90.031370599999946,34.994943971000055],[-90.03805401599999,34.99494072300007]]]},"properties":{"OBJECTID":5,"Shape_Length":0.021405831977182845,"Shape_Area":2.3394510465215518e-05,"Site":"XAI Colossus","Phase":"3","Field":0}},{"type":"Feature","id":6,"geometry":{"type":"Polygon","coordinates":[[[-90.036440223999989,34.986445077000042],[-90.043713494999963,34.985806731000025],[-90.043674807999935,34.97650236100003],[-90.036536942999987,34.976038109000058],[-90.036440223999989,34.986445077000042]]]},"properties":{"OBJECTID":6,"Shape_Length":0.034166044373719624,"Shape_Area":7.1013167408778699e-05,"Site":"XAI Colossus","Phase":"PP 1","Field":0}},{"type":"Feature","id":7,"geometry":{"type":"Polygon","coordinates":[[[-90.036440223999989,34.975593202000027],[-90.032958338999947,34.976038109000058],[-90.028818764999983,34.98961746100008],[-90.036246785999936,34.989965649000055],[-90.036440223999989,34.975593202000027]]]},"properties":{"OBJECTID":7,"Shape_Length":0.039516418223961319,"Shape_Area":7.6133103758356695e-05,"Site":"XAI Colossus","Phase":"PP 2","Field":0}},{"type":"Feature","id":8,"geometry":{"type":"Polygon","coordinates":[[[-86.477208982999969,41.694213175000073],[-86.477118308999991,41.686233855000069],[-86.457139783999935,41.682002398000066],[-86.457139783999935,41.694243400000062],[-86.477208982999969,41.694213175000073]]]},"properties":{"OBJECTID":8,"Shape_Length":0.060711779958570078,"Shape_Area":0.00020234923303466724,"Site":"AWS Indiana","Phase":"1","Field":0}},{"type":"Feature","id":9,"geometry":{"type":"Polygon","coordinates":[[[-86.482075158999976,41.671665552000036],[-86.482558753999967,41.664381400000025],[-86.450489501999982,41.664447865000056],[-86.450900468999976,41.672538913000039],[-86.482075158999976,41.671665552000036]]]},"properties":{"OBJECTID":9,"Shape_Length":0.078657907760122256,"Shape_Area":0.00024307999983876784,"Site":"AWS Indiana","Phase":"2","Field":0}},{"type":"Feature","id":10,"geometry":{"type":"Polygon","coordinates":[[[-86.482770326999969,41.664048928000057],[-86.483072573999948,41.65682522600008],[-86.451131060999955,41.656737382000074],[-86.451354753999965,41.664227888000028],[-86.482770326999969,41.664048928000057]]]},"properties":{"OBJECTID":10,"Shape_Length":0.078081584296701423,"Shape_Area":0.00023306054603678268,"Site":"AWS Indiana","Phase":"3","Field":0}},{"type":"Feature","id":11,"geometry":{"type":"Polygon","coordinates":[[[-87.894681761999948,42.68346731400004],[-87.905677700999945,42.683680002000074],[-87.905422475999956,42.668153822000079],[-87.895022061999953,42.667303073000028],[-87.894681761999948,42.68346731400004]]]},"properties":{"OBJECTID":11,"Shape_Length":0.05312924749031897,"Shape_Area":0.00016953747658439382,"Site":"Microsoft Mt Pleasant","Phase":"1","Field":0}},{"type":"Feature","id":12,"geometry":{"type":"Polygon","coordinates":[[[-87.905826581999975,42.683594927000058],[-87.914504226999952,42.68387142000006],[-87.915397513999949,42.667962403000047],[-87.905592625999986,42.667898597000033],[-87.905826581999975,42.683594927000058]]]},"properties":{"OBJECTID":12,"Shape_Length":0.050119294047244328,"Shape_Area":0.00014609280964568525,"Site":"Microsoft Mt Pleasant","Phase":"2","Field":0}},{"type":"Feature","id":13,"geometry":{"type":"Polygon","coordinates":[[[-87.918800512999951,42.683297164000066],[-87.918970662999982,42.698312894000026],[-87.927903532999949,42.698440507000043],[-87.950299515999973,42.696632664000049],[-87.946492410999952,42.68321209000004],[-87.918800512999951,42.683297164000066]]]},"properties":{"OBJECTID":13,"Shape_Length":0.088061455052315801,"Shape_Area":0.00043084189301483336,"Site":"Microsoft Mt Pleasant","Phase":"3","Field":0}},{"type":"Feature","id":14,"geometry":{"type":"Polygon","coordinates":[[[-87.926776289999964,42.698887150000076],[-87.923026428999947,42.704835003000028],[-87.923078353999983,42.705821590000028],[-87.933100000999957,42.714181617000065],[-87.950650864999943,42.714389320000066],[-87.954531994999968,42.706288672000028],[-87.95104392199994,42.696845351000036],[-87.926776289999964,42.698887150000076]]]},"properties":{"OBJECTID":14,"Shape_Length":0.082024802735808283,"Shape_Area":0.0004306949328289782,"Site":"Microsoft Mt Pleasant","Phase":"4","Field":0}},{"type":"Feature","id":15,"geometry":{"type":"Polygon","coordinates":[[[-87.894511611999974,42.683658733000073],[-87.894554149999976,42.66817509100008],[-87.870035280999957,42.668214970000065],[-87.869935583999961,42.683103087000063],[-87.894511611999974,42.683658733000073]]]},"properties":{"OBJECTID":15,"Shape_Length":0.079473361237329287,"Shape_Area":0.00037279293498339311,"Site":"Microsoft Mt Pleasant","Phase":"5","Field":0}},{"type":"Feature","id":16,"geometry":{"type":"Polygon","coordinates":[[[-87.981494690999966,42.630892902000028],[-87.977548342999967,42.604410829000074],[-87.953766402999975,42.603320390000079],[-87.954389510999988,42.631879489000028],[-87.981494690999966,42.630892902000028]]]},"properties":{"OBJECTID":16,"Shape_Length":0.10627045100899564,"Shape_Area":0.00070010304433839872,"Site":"Microsoft Mt Pleasant","Phase":"Kenosha_WI","Field":0}},{"type":"Feature","id":17,"geometry":{"type":"Polygon","coordinates":[[[-94.586836095999956,39.330485119000059],[-94.583180530999982,39.309947492000049],[-94.564537151999957,39.31091123200008],[-94.566232003999971,39.330186027000025],[-94.586836095999956,39.330485119000059]]]},"properties":{"OBJECTID":17,"Shape_Length":0.079484124872655437,"Shape_Area":0.00039152325546039325,"Site":"Google Kansas City","Phase":"2_Mica","Field":0}},{"type":"Feature","id":18,"geometry":{"type":"Polygon","coordinates":[[[-94.51487521699994,39.203771905000053],[-94.502786279999953,39.142272483000056],[-94.394391520999989,39.168965504000028],[-94.420354337999981,39.202717165000024],[-94.51487521699994,39.203771905000053]]]},"properties":{"OBJECTID":18,"Shape_Length":0.31141833520596651,"Shape_Area":0.0050758789596798597,"Site":"Google Kansas City","Phase":"1_Hunt","Field":0}},{"type":"Feature","id":19,"geometry":{"type":"Polygon","coordinates":[[[-90.166733036999972,35.069534126000065],[-90.158217233999949,35.020931733000054],[-90.132773672999974,35.01812774900003],[-90.133241003999956,35.066833993000046],[-90.166733036999972,35.069534126000065]]]},"properties":{"OBJECTID":19,"Shape_Length":0.15724958105874187,"Shape_Area":0.0014213745255907226,"Site":"XAI Colossus","Phase":"1","Field":0}},{"type":"Feature","id":20,"geometry":{"type":"Polygon","coordinates":[[[-86.505712116999973,41.721855766000033],[-86.505678884999952,41.715641307000055],[-86.482150341999954,41.71554160900007],[-86.476999318999958,41.713381503000051],[-86.476903236999988,41.708791682000026],[-86.471877083999971,41.708441852000078],[-86.471713528999942,41.722751113000072],[-86.467178623999985,41.722742774000039],[-86.466837089999956,41.730341726000063],[-86.470120210999937,41.73697651100008],[-86.492120062999959,41.726009817000033],[-86.492289264999954,41.723457345000043],[-86.505712116999973,41.721855766000033]]]},"properties":{"OBJECTID":20,"Shape_Length":0.11947031481440201,"Shape_Area":0.00051054771694883654,"Site":"AWS Indiana","Phase":"4_Cancelled","Field":0}}]}